{
"type": "FeatureCollection",
"name": "ktxh_line",
"crs": { "type": "name", "properties": { "name": "urn:ogc:def:crs:OGC:1.3:CRS84" } },
"features": [
{ "type": "Feature", "properties": { "ID": "TBI336", "Ten_CT": "Tường vây", "Loai_CT": "", "Thuoc_huyen": "TP. Thái Bình", "Thuoc_tinh": "Thái Bình", "Trong_chigioi": "", "Ngoai_baiSg": "0.0" }, "geometry": { "type": "MultiLineString", "coordinates": [ [ [ 106.302063013902085, 20.437715923707117 ], [ 106.302045621031709, 20.443685934167849 ], [ 106.316126472177288, 20.443912916972309 ], [ 106.316435805932116, 20.439053131180486 ] ] ] } },
{ "type": "Feature", "properties": { "ID": "TBI336", "Ten_CT": "Tường vây", "Loai_CT": "", "Thuoc_huyen": "TP. Thái Bình", "Thuoc_tinh": "Thái Bình", "Trong_chigioi": "", "Ngoai_baiSg": "0.0" }, "geometry": { "type": "MultiLineString", "coordinates": [ [ [ 106.321151359937375, 20.449728315111241 ], [ 106.330099642119833, 20.456743433540435 ] ], [ [ 106.316126472177288, 20.443912916972309 ], [ 106.316098705400179, 20.444997166696883 ], [ 106.316364456610927, 20.445374872811453 ], [ 106.316543293482908, 20.445890107515247 ], [ 106.316951049348788, 20.44636322548843 ], [ 106.318059852044868, 20.447250500301944 ], [ 106.319489333225022, 20.448299580912661 ], [ 106.320452057507268, 20.448970579185733 ], [ 106.321151553176236, 20.449728494331623 ] ] ] } }
]
}
