{
"type": "FeatureCollection",
"name": "hatqly",
"crs": { "type": "name", "properties": { "name": "urn:ogc:def:crs:OGC:1.3:CRS84" } },
"features": [
{ "type": "Feature", "properties": { "tessellate": -1, "extrude": 0, "visibility": -1, "ID": "HYE326t_hong80+300020vgiang", "Ten_HatQL": "Hạt QLĐ. Văn Giang", "Vitri_XY": 0.0, "Vitri_DiaLy": "", "Vitri_Km": "K80+300", "Thuoc_Tde": "Tả Hồng", "Dia_chi": "TT. Văn Giang", "Thuoc_huyen": "H. Văn Giang", "Thuoc_tinh": "Hưng Yên", "Kich_thuoc": "0", "Ket_cau": "", "Nam_XD": "2002", "Nam_tubo": "0", "Dien_thoai": "0321.931107", "Fax": "0321.931807", "Danh_sach": "", "Chuc_danh": "", "De_Qly": "", "Chdai_Qly": 0.0, "Kho_Qly": 0, "Lien_ket": "", "layer": "hye_hatqly", "path": "D:/Work/HungYen/gis.hungyen.ai/fe/public/static/data/de/hye_hatqly.geojson" }, "geometry": { "type": "Point", "coordinates": [ 105.930588680140005, 20.945845202805302 ] } },
{ "type": "Feature", "properties": { "tessellate": -1, "extrude": 0, "visibility": -1, "ID": "HYE330t_hong92+450020khchau", "Ten_HatQL": "Hạt QLĐ. Khoái Châu", "Vitri_XY": 0.0, "Vitri_DiaLy": "", "Vitri_Km": "K92+450", "Thuoc_Tde": "Tả Hồng", "Dia_chi": "Hàm Tử (Trụ sở)", "Thuoc_huyen": "H. Khoái Châu", "Thuoc_tinh": "Hưng Yên", "Kich_thuoc": "0", "Ket_cau": "", "Nam_XD": "0", "Nam_tubo": "1989", "Dien_thoai": "0321.915870", "Fax": "0321.915870", "Danh_sach": "", "Chuc_danh": "", "De_Qly": "", "Chdai_Qly": 0.0, "Kho_Qly": 0, "Lien_ket": "", "layer": "hye_hatqly", "path": "D:/Work/HungYen/gis.hungyen.ai/fe/public/static/data/de/hye_hatqly.geojson" }, "geometry": { "type": "Point", "coordinates": [ 105.941547991589005, 20.858231136543498 ] } },
{ "type": "Feature", "properties": { "tessellate": -1, "extrude": 0, "visibility": -1, "ID": "HYE330t_hong103+800020nghxuyen", "Ten_HatQL": "Cụm QLĐ. Nghi Xuyên", "Vitri_XY": 0.0, "Vitri_DiaLy": "", "Vitri_Km": "K103+800", "Thuoc_Tde": "Tả Hồng", "Dia_chi": "Chí Tân", "Thuoc_huyen": "H. Khoái Châu", "Thuoc_tinh": "Hưng Yên", "Kich_thuoc": "0", "Ket_cau": "", "Nam_XD": "0", "Nam_tubo": "0", "Dien_thoai": "", "Fax": "", "Danh_sach": "", "Chuc_danh": "", "De_Qly": "", "Chdai_Qly": 0.0, "Kho_Qly": 0, "Lien_ket": "", "layer": "hye_hatqly", "path": "D:/Work/HungYen/gis.hungyen.ai/fe/public/static/data/de/hye_hatqly.geojson" }, "geometry": { "type": "Point", "coordinates": [ 105.972022920827996, 20.7814858442195 ] } },
{ "type": "Feature", "properties": { "tessellate": -1, "extrude": 0, "visibility": -1, "ID": "HYE323t_hong125+560020hyen", "Ten_HatQL": "Hạt QLĐ. Thị xã HY", "Vitri_XY": 0.0, "Vitri_DiaLy": "", "Vitri_Km": "K125+560", "Thuoc_Tde": "Tả Hồng", "Dia_chi": "Minh Khai", "Thuoc_huyen": "H. TX Hưng Yên", "Thuoc_tinh": "Hưng Yên", "Kich_thuoc": "0", "Ket_cau": "", "Nam_XD": "1972", "Nam_tubo": "2007", "Dien_thoai": "0321.862286", "Fax": "0321.862286", "Danh_sach": "", "Chuc_danh": "", "De_Qly": "", "Chdai_Qly": 0.0, "Kho_Qly": 0, "Lien_ket": "", "layer": "hye_hatqly", "path": "D:/Work/HungYen/gis.hungyen.ai/fe/public/static/data/de/hye_hatqly.geojson" }, "geometry": { "type": "Point", "coordinates": [ 106.051492361903996, 20.645269998038 ] } },
{ "type": "Feature", "properties": { "tessellate": -1, "extrude": 0, "visibility": -1, "ID": "HYE332t_luoc4+300020tlu", "Ten_HatQL": "Hạt QLĐ. Tiên Lữ", "Vitri_XY": 0.0, "Vitri_DiaLy": "", "Vitri_Km": "K4+300", "Thuoc_Tde": "Tả Luộc", "Dia_chi": "Thiện Phiến", "Thuoc_huyen": "H. Tiên Lữ", "Thuoc_tinh": "Hưng Yên", "Kich_thuoc": "0", "Ket_cau": "", "Nam_XD": "1990", "Nam_tubo": "2001", "Dien_thoai": "0321.875113", "Fax": "0321.875113", "Danh_sach": "", "Chuc_danh": "", "De_Qly": "", "Chdai_Qly": 0.0, "Kho_Qly": 0, "Lien_ket": "", "layer": "hye_hatqly", "path": "D:/Work/HungYen/gis.hungyen.ai/fe/public/static/data/de/hye_hatqly.geojson" }, "geometry": { "type": "Point", "coordinates": [ 106.127488892518997, 20.654651542996302 ] } },
{ "type": "Feature", "properties": { "tessellate": -1, "extrude": 0, "visibility": -1, "ID": "HYE333t_luoc17+100020pcu", "Ten_HatQL": "Hạt QLĐ. Phù Cừ", "Vitri_XY": 0.0, "Vitri_DiaLy": "", "Vitri_Km": "K17+100", "Thuoc_Tde": "Tả Luộc", "Dia_chi": "Tam Đa", "Thuoc_huyen": "H. Phù Cừ", "Thuoc_tinh": "Hưng Yên", "Kich_thuoc": "0", "Ket_cau": "", "Nam_XD": "1994", "Nam_tubo": "2003", "Dien_thoai": "0321.859709", "Fax": "0321.859709", "Danh_sach": "", "Chuc_danh": "", "De_Qly": "", "Chdai_Qly": 0.0, "Kho_Qly": 0, "Lien_ket": "", "layer": "hye_hatqly", "path": "D:/Work/HungYen/gis.hungyen.ai/fe/public/static/data/de/hye_hatqly.geojson" }, "geometry": { "type": "Point", "coordinates": [ 106.238052845449005, 20.668879156960401 ] } },
{ "type": "Feature", "properties": { "tessellate": -1, "extrude": 0, "visibility": -1, "ID": "HYE331t_hong116+480020kdong", "Ten_HatQL": "Hạt QLĐ. Kim Động", "Vitri_XY": 0.0, "Vitri_DiaLy": "", "Vitri_Km": "K116+480", "Thuoc_Tde": "Tả Hồng", "Dia_chi": "Thanh Cù", "Thuoc_huyen": "H. Kim Động", "Thuoc_tinh": "Hưng Yên", "Kich_thuoc": "0", "Ket_cau": "", "Nam_XD": "2004", "Nam_tubo": "0", "Dien_thoai": "0321.811457", "Fax": "0321.811457", "Danh_sach": "", "Chuc_danh": "", "De_Qly": "", "Chdai_Qly": 0.0, "Kho_Qly": 0, "Lien_ket": "", "layer": "hye_hatqly", "path": "D:/Work/HungYen/gis.hungyen.ai/fe/public/static/data/de/hye_hatqly.geojson" }, "geometry": { "type": "Point", "coordinates": [ 106.048331744495997, 20.714780486428399 ] } },
{ "type": "Feature", "properties": { "tessellate": -1, "extrude": 0, "visibility": -1, "ID": "HYE323t_hong117+400020dla", "Ten_HatQL": "Cụm QLĐ. Dốc Lã", "Vitri_XY": 0.0, "Vitri_DiaLy": "", "Vitri_Km": "117+400", "Thuoc_Tde": "Tả Hồng", "Dia_chi": "Bảo khê", "Thuoc_huyen": "TX. Hưng Yên", "Thuoc_tinh": "Hưng Yên", "Kich_thuoc": "0", "Ket_cau": "", "Nam_XD": "0", "Nam_tubo": "0", "Dien_thoai": "", "Fax": "", "Danh_sach": "", "Chuc_danh": "", "De_Qly": "", "Chdai_Qly": 0.0, "Kho_Qly": 0, "Lien_ket": "", "layer": "hye_hatqly", "path": "D:/Work/HungYen/gis.hungyen.ai/fe/public/static/data/de/hye_hatqly.geojson" }, "geometry": { "type": "Point", "coordinates": [ 106.053748945186001, 20.708398898318801 ] } },
{ "type": "Feature", "properties": { "tessellate": -1, "extrude": 0, "visibility": -1, "ID": "TBI339t_honghaI140+000020hha", "Ten_HatQL": "Hạt QLĐĐ. Hưng Hà", "Vitri_XY": 0.0, "Vitri_DiaLy": "0", "Vitri_Km": "K140+000", "Thuoc_Tde": "Tả Hồng Hà I", "Dia_chi": "Thôn Nhật Tảo - xã Tiến Đức", "Thuoc_huyen": "H. Hưng Hà", "Thuoc_tinh": "Thái Bình", "Kich_thuoc": "0", "Ket_cau": "", "Nam_XD": null, "Nam_tubo": null, "Dien_thoai": "0", "Fax": "0", "Danh_sach": "", "Chuc_danh": "", "De_Qly": "", "Chdai_Qly": 0.0, "Kho_Qly": 0, "Lien_ket": "", "layer": "tbi_hatqly", "path": "D:/Work/HungYen/gis.hungyen.ai/fe/public/static/data/de/tbi_hatqly.geojson" }, "geometry": { "type": "Point", "coordinates": [ 106.135179116792997, 20.590672266125001 ] } },
{ "type": "Feature", "properties": { "tessellate": -1, "extrude": 0, "visibility": -1, "ID": "TBI340t_traly17+100020dhung", "Ten_HatQL": "Hạt QLĐĐ. Đông Hưng", "Vitri_XY": 0.0, "Vitri_DiaLy": "0", "Vitri_Km": "K17+100", "Thuoc_Tde": "Tả Trà Lý", "Dia_chi": "X. Đồng Phú", "Thuoc_huyen": "H. Đông Hưng", "Thuoc_tinh": "Thái Bình", "Kich_thuoc": "0", "Ket_cau": "", "Nam_XD": null, "Nam_tubo": null, "Dien_thoai": "0", "Fax": "0", "Danh_sach": "", "Chuc_danh": "", "De_Qly": "", "Chdai_Qly": 0.0, "Kho_Qly": 0, "Lien_ket": "", "layer": "tbi_hatqly", "path": "D:/Work/HungYen/gis.hungyen.ai/fe/public/static/data/de/tbi_hatqly.geojson" }, "geometry": { "type": "Point", "coordinates": [ 106.294278411283003, 20.514801133633998 ] } },
{ "type": "Feature", "properties": { "tessellate": -1, "extrude": 0, "visibility": -1, "ID": "TBI336t_traly28+500020tpho", "Ten_HatQL": "Hạt QLĐĐ. Thành Phố", "Vitri_XY": 0.0, "Vitri_DiaLy": "0", "Vitri_Km": "K28+500", "Thuoc_Tde": "Tả Trà Lý", "Dia_chi": "Thôn Tân Xuyên - xã Hoàng Diệu", "Thuoc_huyen": "TP. Thái Bình", "Thuoc_tinh": "Thái Bình", "Kich_thuoc": "0", "Ket_cau": "", "Nam_XD": null, "Nam_tubo": null, "Dien_thoai": "0", "Fax": "0", "Danh_sach": "", "Chuc_danh": "", "De_Qly": "", "Chdai_Qly": 0.0, "Kho_Qly": 0, "Lien_ket": "", "layer": "tbi_hatqly", "path": "D:/Work/HungYen/gis.hungyen.ai/fe/public/static/data/de/tbi_hatqly.geojson" }, "geometry": { "type": "Point", "coordinates": [ 106.350577912310001, 20.455734748392398 ] } },
{ "type": "Feature", "properties": { "tessellate": -1, "extrude": 0, "visibility": -1, "ID": "TBI344h_traly15+680020pthanh", "Ten_HatQL": "Trạm QLĐĐ. Phúc Thành", "Vitri_XY": 0.0, "Vitri_DiaLy": "0", "Vitri_Km": "K15+680", "Thuoc_Tde": "Hữu Trà Lý", "Dia_chi": "X. Phúc Thành", "Thuoc_huyen": "H. Vũ Thư", "Thuoc_tinh": "Thái Bình", "Kich_thuoc": "0", "Ket_cau": "", "Nam_XD": null, "Nam_tubo": null, "Dien_thoai": "0", "Fax": "0", "Danh_sach": "", "Chuc_danh": "", "De_Qly": "", "Chdai_Qly": 0.0, "Kho_Qly": 0, "Lien_ket": "", "layer": "tbi_hatqly", "path": "D:/Work/HungYen/gis.hungyen.ai/fe/public/static/data/de/tbi_hatqly.geojson" }, "geometry": { "type": "Point", "coordinates": [ 106.296122576113007, 20.509446563910799 ] } },
{ "type": "Feature", "properties": { "tessellate": -1, "extrude": 0, "visibility": -1, "ID": "TBI343h_traly33+200020kxuong", "Ten_HatQL": "Hạt QLĐĐ. Kiến Xương", "Vitri_XY": 0.0, "Vitri_DiaLy": "0", "Vitri_Km": "K33+200", "Thuoc_Tde": "Hữu Trà Lý", "Dia_chi": "Bến Tìm - xã Vũ Tây", "Thuoc_huyen": "H. Kiến Xương", "Thuoc_tinh": "Thái Bình", "Kich_thuoc": "0", "Ket_cau": "", "Nam_XD": null, "Nam_tubo": null, "Dien_thoai": "0", "Fax": "0", "Danh_sach": "", "Chuc_danh": "", "De_Qly": "", "Chdai_Qly": 0.0, "Kho_Qly": 0, "Lien_ket": "", "layer": "tbi_hatqly", "path": "D:/Work/HungYen/gis.hungyen.ai/fe/public/static/data/de/tbi_hatqly.geojson" }, "geometry": { "type": "Point", "coordinates": [ 106.388926054094995, 20.483741451161801 ] } },
{ "type": "Feature", "properties": { "tessellate": -1, "extrude": 0, "visibility": -1, "ID": "TBI342bsau39+050020thai", "Ten_HatQL": "Hạt QLĐĐ. Tiền Hải", "Vitri_XY": 0.0, "Vitri_DiaLy": "0", "Vitri_Km": "K39+050", "Thuoc_Tde": "Đê biển số 6", "Dia_chi": "X. Nam Cường", "Thuoc_huyen": "H. Tiền Hải", "Thuoc_tinh": "Thái Bình", "Kich_thuoc": "0", "Ket_cau": "", "Nam_XD": null, "Nam_tubo": null, "Dien_thoai": "0", "Fax": "0", "Danh_sach": "", "Chuc_danh": "", "De_Qly": "", "Chdai_Qly": 0.0, "Kho_Qly": 0, "Lien_ket": "", "layer": "tbi_hatqly", "path": "D:/Work/HungYen/gis.hungyen.ai/fe/public/static/data/de/tbi_hatqly.geojson" }, "geometry": { "type": "Point", "coordinates": [ 106.564496902859005, 20.383914812935799 ] } },
{ "type": "Feature", "properties": { "tessellate": -1, "extrude": 0, "visibility": -1, "ID": "TBI341btam020tthuy", "Ten_HatQL": "Hạt QLĐ. Thái Thụy", "Vitri_XY": 0.0, "Vitri_DiaLy": "0", "Vitri_Km": "", "Thuoc_Tde": "Đê biển số 8", "Dia_chi": "Khu 7 - TT. Diêm Điền - Thái Thuỵ", "Thuoc_huyen": "H. Thái Thụy", "Thuoc_tinh": "Thái Bình", "Kich_thuoc": "0", "Ket_cau": "", "Nam_XD": null, "Nam_tubo": null, "Dien_thoai": "0", "Fax": "0", "Danh_sach": "", "Chuc_danh": "", "De_Qly": "", "Chdai_Qly": 0.0, "Kho_Qly": 0, "Lien_ket": "", "layer": "tbi_hatqly", "path": "D:/Work/HungYen/gis.hungyen.ai/fe/public/static/data/de/tbi_hatqly.geojson" }, "geometry": { "type": "Point", "coordinates": [ 106.560426092401997, 20.5654582969951 ] } },
{ "type": "Feature", "properties": { "tessellate": -1, "extrude": 0, "visibility": -1, "ID": "TBI344t_honghaII156+320020vthu", "Ten_HatQL": "Hạt QLĐĐ. Vũ Thư", "Vitri_XY": 0.0, "Vitri_DiaLy": "0", "Vitri_Km": "K156+320", "Thuoc_Tde": "Tả Hồng Hà II", "Dia_chi": "X. Việt Hùng - Vũ Thư", "Thuoc_huyen": "H. Vũ Thư", "Thuoc_tinh": "Thái Bình", "Kich_thuoc": "0", "Ket_cau": "", "Nam_XD": null, "Nam_tubo": null, "Dien_thoai": "0", "Fax": "0", "Danh_sach": "", "Chuc_danh": "", "De_Qly": "", "Chdai_Qly": 0.0, "Kho_Qly": 0, "Lien_ket": "", "layer": "tbi_hatqly", "path": "D:/Work/HungYen/gis.hungyen.ai/fe/public/static/data/de/tbi_hatqly.geojson" }, "geometry": { "type": "Point", "coordinates": [ 106.230235898016005, 20.469755889923299 ] } },
{ "type": "Feature", "properties": { "tessellate": -1, "extrude": 0, "visibility": -1, "ID": "TBI344t_honghaII169+100020nxa", "Ten_HatQL": "Trạm QLĐĐ. Ngô Xá - Vũ Thư", "Vitri_XY": 0.0, "Vitri_DiaLy": "0", "Vitri_Km": "K169+100", "Thuoc_Tde": "Tả Hồng Hà II", "Dia_chi": "X. Nguyên Xá - Vũ Thư", "Thuoc_huyen": "H. Vũ Thư", "Thuoc_tinh": "Thái Bình", "Kich_thuoc": "0", "Ket_cau": "", "Nam_XD": null, "Nam_tubo": null, "Dien_thoai": "0", "Fax": "0", "Danh_sach": "", "Chuc_danh": "", "De_Qly": "", "Chdai_Qly": 0.0, "Kho_Qly": 0, "Lien_ket": "", "layer": "tbi_hatqly", "path": "D:/Work/HungYen/gis.hungyen.ai/fe/public/static/data/de/tbi_hatqly.geojson" }, "geometry": { "type": "Point", "coordinates": [ 106.287092533728995, 20.397245860276101 ] } },
{ "type": "Feature", "properties": { "tessellate": -1, "extrude": 0, "visibility": -1, "ID": "TBI343t_honghaII191+000020mtan", "Ten_HatQL": "Trạm QLĐĐ. Minh Tân - Kiến Xương", "Vitri_XY": 0.0, "Vitri_DiaLy": "0", "Vitri_Km": "K191+000", "Thuoc_Tde": "Tả Hồng Hà II", "Dia_chi": "X. Minh Tân", "Thuoc_huyen": "H. Kiến Xương", "Thuoc_tinh": "Thái Bình", "Kich_thuoc": "0", "Ket_cau": "", "Nam_XD": null, "Nam_tubo": null, "Dien_thoai": "0", "Fax": "0", "Danh_sach": "", "Chuc_danh": "", "De_Qly": "", "Chdai_Qly": 0.0, "Kho_Qly": 0, "Lien_ket": "", "layer": "tbi_hatqly", "path": "D:/Work/HungYen/gis.hungyen.ai/fe/public/static/data/de/tbi_hatqly.geojson" }, "geometry": { "type": "Point", "coordinates": [ 106.411712862051004, 20.334466600181901 ] } },
{ "type": "Feature", "properties": { "tessellate": -1, "extrude": 0, "visibility": -1, "ID": "TBI339t_honghaI133+000020lkhe", "Ten_HatQL": "Trạm QLĐĐ. Lão Khê - Hưng Hà", "Vitri_XY": 0.0, "Vitri_DiaLy": "0", "Vitri_Km": "K133+000", "Thuoc_Tde": "Tả Hồng Hà I", "Dia_chi": "Tân Lế", "Thuoc_huyen": "H. Hưng Hà", "Thuoc_tinh": "Thái Bình", "Kich_thuoc": "0", "Ket_cau": "", "Nam_XD": null, "Nam_tubo": null, "Dien_thoai": "0", "Fax": "0", "Danh_sach": "", "Chuc_danh": "", "De_Qly": "", "Chdai_Qly": 0.0, "Kho_Qly": 0, "Lien_ket": "", "layer": "tbi_hatqly", "path": "D:/Work/HungYen/gis.hungyen.ai/fe/public/static/data/de/tbi_hatqly.geojson" }, "geometry": { "type": "Point", "coordinates": [ 106.131775137031994, 20.647876078413201 ] } },
{ "type": "Feature", "properties": { "tessellate": -1, "extrude": 0, "visibility": -1, "ID": "TBI339h_luoc10+700020nlang", "Ten_HatQL": "Trạm QLĐĐ. Nhâm Lang - Hưng Hà", "Vitri_XY": 0.0, "Vitri_DiaLy": "0", "Vitri_Km": "K10+700", "Thuoc_Tde": "Hữu Luộc", "Dia_chi": "Nhâm Lang", "Thuoc_huyen": "H. Hưng Hà", "Thuoc_tinh": "Thái Bình", "Kich_thuoc": "0", "Ket_cau": "", "Nam_XD": null, "Nam_tubo": null, "Dien_thoai": "0", "Fax": "0", "Danh_sach": "", "Chuc_danh": "", "De_Qly": "", "Chdai_Qly": 0.0, "Kho_Qly": 0, "Lien_ket": "", "layer": "tbi_hatqly", "path": "D:/Work/HungYen/gis.hungyen.ai/fe/public/static/data/de/tbi_hatqly.geojson" }, "geometry": { "type": "Point", "coordinates": [ 106.217842042222998, 20.6391951037923 ] } },
{ "type": "Feature", "properties": { "tessellate": -1, "extrude": 0, "visibility": -1, "ID": "TBI338h_luoc23+500020qphu", "Ten_HatQL": "Hạt QLĐ.  Quỳnh Phụ", "Vitri_XY": 0.0, "Vitri_DiaLy": "0", "Vitri_Km": "K23+500", "Thuoc_Tde": "Hữu Luộc", "Dia_chi": "X. Quỳnh Hoàng", "Thuoc_huyen": "H. Quỳnh Phụ", "Thuoc_tinh": "Thái Bình", "Kich_thuoc": "0", "Ket_cau": "", "Nam_XD": null, "Nam_tubo": null, "Dien_thoai": "0", "Fax": "0", "Danh_sach": "", "Chuc_danh": "", "De_Qly": "", "Chdai_Qly": 0.0, "Kho_Qly": 0, "Lien_ket": "", "layer": "tbi_hatqly", "path": "D:/Work/HungYen/gis.hungyen.ai/fe/public/static/data/de/tbi_hatqly.geojson" }, "geometry": { "type": "Point", "coordinates": [ 106.301200345539996, 20.6867551351537 ] } },
{ "type": "Feature", "properties": { "tessellate": -1, "extrude": 0, "visibility": -1, "ID": "TBI338h_hoa9+000020cnghin", "Ten_HatQL": "Trạm QLĐĐ. Cầu Nghìn", "Vitri_XY": 0.0, "Vitri_DiaLy": "0", "Vitri_Km": "K9+000", "Thuoc_Tde": "Hữu Hoá", "Dia_chi": "", "Thuoc_huyen": "H. Quỳnh Phụ", "Thuoc_tinh": "Thái Bình", "Kich_thuoc": "0", "Ket_cau": "", "Nam_XD": null, "Nam_tubo": null, "Dien_thoai": "0", "Fax": "0", "Danh_sach": "", "Chuc_danh": "", "De_Qly": "", "Chdai_Qly": 0.0, "Kho_Qly": 0, "Lien_ket": "", "layer": "tbi_hatqly", "path": "D:/Work/HungYen/gis.hungyen.ai/fe/public/static/data/de/tbi_hatqly.geojson" }, "geometry": { "type": "Point", "coordinates": [ 106.433388054958002, 20.658360270593001 ] } },
{ "type": "Feature", "properties": { "tessellate": -1, "extrude": 0, "visibility": -1, "ID": "TBI339t_traly2+900020txuyen", "Ten_HatQL": "Trạm QLĐĐ. Tịnh Xuyên", "Vitri_XY": 0.0, "Vitri_DiaLy": "0", "Vitri_Km": "K2+900", "Thuoc_Tde": "Tả Trà Lý", "Dia_chi": "X. Hồng Minh", "Thuoc_huyen": "H. Hưng Hà", "Thuoc_tinh": "Thái Bình", "Kich_thuoc": "0", "Ket_cau": "", "Nam_XD": null, "Nam_tubo": null, "Dien_thoai": "0", "Fax": "0", "Danh_sach": "", "Chuc_danh": "", "De_Qly": "", "Chdai_Qly": 0.0, "Kho_Qly": 0, "Lien_ket": "", "layer": "tbi_hatqly", "path": "D:/Work/HungYen/gis.hungyen.ai/fe/public/static/data/de/tbi_hatqly.geojson" }, "geometry": { "type": "Point", "coordinates": [ 106.206192976512995, 20.521236328087198 ] } }
]
}
